{"type": "FeatureCollection", "metadata": {"source": "Zayo Global Network Capabilities mapbook, Q2 2025 (published marketing document)", "note": "Long-haul dark fiber termination points + core PoP metros, city-level coordinates. Reference layer only \u2014 one carrier's published network, not surveyed route geometry.", "carrier": "Zayo"}, "features": [{"type": "Feature", "properties": {"name": "Seattle PoP", "role": "core_pop", "carrier": "Zayo"}, "geometry": {"type": "Point", "coordinates": [-122.3321, 47.6062]}}, {"type": "Feature", "properties": {"name": "Portland PoP", "role": "core_pop", "carrier": "Zayo"}, "geometry": {"type": "Point", "coordinates": [-122.6765, 45.5231]}}, {"type": "Feature", "properties": {"name": "San Francisco PoP", "role": "core_pop", "carrier": "Zayo"}, "geometry": {"type": "Point", "coordinates": [-122.4194, 37.7749]}}, {"type": "Feature", "properties": {"name": "Los Angeles PoP", "role": "core_pop", "carrier": "Zayo"}, "geometry": {"type": "Point", "coordinates": [-118.2437, 34.0522]}}, {"type": "Feature", "properties": {"name": "San Diego PoP", "role": "core_pop", "carrier": "Zayo"}, "geometry": {"type": "Point", "coordinates": [-117.1611, 32.7157]}}, {"type": "Feature", "properties": {"name": "Las Vegas PoP", "role": "core_pop", "carrier": "Zayo"}, "geometry": {"type": "Point", "coordinates": [-115.1398, 36.1699]}}, {"type": "Feature", "properties": {"name": "Phoenix PoP", "role": "core_pop", "carrier": "Zayo"}, "geometry": {"type": "Point", "coordinates": [-112.074, 33.4484]}}, {"type": "Feature", "properties": {"name": "Tucson PoP", "role": "core_pop", "carrier": "Zayo"}, "geometry": {"type": "Point", "coordinates": [-110.9747, 32.2226]}}, {"type": "Feature", "properties": {"name": "Salt Lake City PoP", "role": "core_pop", "carrier": "Zayo"}, "geometry": {"type": "Point", "coordinates": [-111.891, 40.7608]}}, {"type": "Feature", "properties": {"name": "Denver PoP", "role": "core_pop", "carrier": "Zayo"}, "geometry": {"type": "Point", "coordinates": [-104.9903, 39.7392]}}, {"type": "Feature", "properties": {"name": "Colorado Springs PoP", "role": "core_pop", "carrier": "Zayo"}, "geometry": {"type": "Point", "coordinates": [-104.8214, 38.8339]}}, {"type": "Feature", "properties": {"name": "Cheyenne PoP", "role": "core_pop", "carrier": "Zayo"}, "geometry": {"type": "Point", "coordinates": [-104.8202, 41.14]}}, {"type": "Feature", "properties": {"name": "Albuquerque PoP", "role": "core_pop", "carrier": "Zayo"}, "geometry": {"type": "Point", "coordinates": [-106.6504, 35.0844]}}, {"type": "Feature", "properties": {"name": "El Paso PoP", "role": "core_pop", "carrier": "Zayo"}, "geometry": {"type": "Point", "coordinates": [-106.485, 31.7619]}}, {"type": "Feature", "properties": {"name": "Dallas PoP", "role": "core_pop", "carrier": "Zayo"}, "geometry": {"type": "Point", "coordinates": [-96.797, 32.7767]}}, {"type": "Feature", "properties": {"name": "Austin PoP", "role": "core_pop", "carrier": "Zayo"}, "geometry": {"type": "Point", "coordinates": [-97.7431, 30.2672]}}, {"type": "Feature", "properties": {"name": "San Antonio PoP", "role": "core_pop", "carrier": "Zayo"}, "geometry": {"type": "Point", "coordinates": [-98.4936, 29.4241]}}, {"type": "Feature", "properties": {"name": "Houston PoP", "role": "core_pop", "carrier": "Zayo"}, "geometry": {"type": "Point", "coordinates": [-95.3698, 29.7604]}}, {"type": "Feature", "properties": {"name": "Kansas City PoP", "role": "core_pop", "carrier": "Zayo"}, "geometry": {"type": "Point", "coordinates": [-94.5786, 39.0997]}}, {"type": "Feature", "properties": {"name": "Omaha PoP", "role": "core_pop", "carrier": "Zayo"}, "geometry": {"type": "Point", "coordinates": [-95.9345, 41.2565]}}, {"type": "Feature", "properties": {"name": "Des Moines PoP", "role": "core_pop", "carrier": "Zayo"}, "geometry": {"type": "Point", "coordinates": [-93.6091, 41.5868]}}, {"type": "Feature", "properties": {"name": "Minneapolis PoP", "role": "core_pop", "carrier": "Zayo"}, "geometry": {"type": "Point", "coordinates": [-93.265, 44.9778]}}, {"type": "Feature", "properties": {"name": "St. Louis PoP", "role": "core_pop", "carrier": "Zayo"}, "geometry": {"type": "Point", "coordinates": [-90.1994, 38.627]}}, {"type": "Feature", "properties": {"name": "Chicago PoP", "role": "core_pop", "carrier": "Zayo"}, "geometry": {"type": "Point", "coordinates": [-87.6298, 41.8781]}}, {"type": "Feature", "properties": {"name": "Indianapolis PoP", "role": "core_pop", "carrier": "Zayo"}, "geometry": {"type": "Point", "coordinates": [-86.1581, 39.7684]}}, {"type": "Feature", "properties": {"name": "Nashville PoP", "role": "core_pop", "carrier": "Zayo"}, "geometry": {"type": "Point", "coordinates": [-86.7816, 36.1627]}}, {"type": "Feature", "properties": {"name": "Memphis PoP", "role": "core_pop", "carrier": "Zayo"}, "geometry": {"type": "Point", "coordinates": [-90.049, 35.1495]}}, {"type": "Feature", "properties": {"name": "Atlanta PoP", "role": "core_pop", "carrier": "Zayo"}, "geometry": {"type": "Point", "coordinates": [-84.388, 33.749]}}, {"type": "Feature", "properties": {"name": "Cleveland PoP", "role": "core_pop", "carrier": "Zayo"}, "geometry": {"type": "Point", "coordinates": [-81.6944, 41.4993]}}, {"type": "Feature", "properties": {"name": "Columbus PoP", "role": "core_pop", "carrier": "Zayo"}, "geometry": {"type": "Point", "coordinates": [-82.9988, 39.9612]}}, {"type": "Feature", "properties": {"name": "Pittsburgh PoP", "role": "core_pop", "carrier": "Zayo"}, "geometry": {"type": "Point", "coordinates": [-79.9959, 40.4406]}}, {"type": "Feature", "properties": {"name": "Ashburn PoP", "role": "core_pop", "carrier": "Zayo"}, "geometry": {"type": "Point", "coordinates": [-77.4875, 39.0438]}}, {"type": "Feature", "properties": {"name": "Washington PoP", "role": "core_pop", "carrier": "Zayo"}, "geometry": {"type": "Point", "coordinates": [-77.0369, 38.9072]}}, {"type": "Feature", "properties": {"name": "Baltimore PoP", "role": "core_pop", "carrier": "Zayo"}, "geometry": {"type": "Point", "coordinates": [-76.6122, 39.2904]}}, {"type": "Feature", "properties": {"name": "Philadelphia PoP", "role": "core_pop", "carrier": "Zayo"}, "geometry": {"type": "Point", "coordinates": [-75.1652, 39.9526]}}, {"type": "Feature", "properties": {"name": "New York PoP", "role": "core_pop", "carrier": "Zayo"}, "geometry": {"type": "Point", "coordinates": [-74.006, 40.7128]}}, {"type": "Feature", "properties": {"name": "Boston PoP", "role": "core_pop", "carrier": "Zayo"}, "geometry": {"type": "Point", "coordinates": [-71.0589, 42.3601]}}, {"type": "Feature", "properties": {"name": "Miami PoP", "role": "core_pop", "carrier": "Zayo"}, "geometry": {"type": "Point", "coordinates": [-80.1918, 25.7617]}}, {"type": "Feature", "properties": {"name": "Tampa PoP", "role": "core_pop", "carrier": "Zayo"}, "geometry": {"type": "Point", "coordinates": [-82.4572, 27.9506]}}, {"type": "Feature", "properties": {"name": "Orlando PoP", "role": "core_pop", "carrier": "Zayo"}, "geometry": {"type": "Point", "coordinates": [-81.3792, 28.5383]}}, {"type": "Feature", "properties": {"name": "Charlotte PoP", "role": "core_pop", "carrier": "Zayo"}, "geometry": {"type": "Point", "coordinates": [-80.8431, 35.2271]}}, {"type": "Feature", "properties": {"name": "Boise PoP", "role": "core_pop", "carrier": "Zayo"}, "geometry": {"type": "Point", "coordinates": [-116.2023, 43.615]}}, {"type": "Feature", "properties": {"name": "Spokane PoP", "role": "core_pop", "carrier": "Zayo"}, "geometry": {"type": "Point", "coordinates": [-117.426, 47.6588]}}, {"type": "Feature", "properties": {"name": "Reno PoP", "role": "core_pop", "carrier": "Zayo"}, "geometry": {"type": "Point", "coordinates": [-119.8138, 39.5296]}}, {"type": "Feature", "properties": {"name": "Sacramento PoP", "role": "core_pop", "carrier": "Zayo"}, "geometry": {"type": "Point", "coordinates": [-121.4944, 38.5816]}}, {"type": "Feature", "properties": {"name": "Coast-to-Coast North", "role": "long_haul", "carrier": "Zayo"}, "geometry": {"type": "LineString", "coordinates": [[-122.3321, 47.6062], [-117.426, 47.6588], [-116.2023, 43.615], [-111.891, 40.7608], [-104.8202, 41.14], [-95.9345, 41.2565], [-93.6091, 41.5868], [-87.6298, 41.8781], [-81.6944, 41.4993], [-79.9959, 40.4406], [-77.4875, 39.0438], [-77.0369, 38.9072], [-74.006, 40.7128]]}}, {"type": "Feature", "properties": {"name": "Coast-to-Coast Central", "role": "long_haul", "carrier": "Zayo"}, "geometry": {"type": "LineString", "coordinates": [[-122.4194, 37.7749], [-121.4944, 38.5816], [-119.8138, 39.5296], [-111.891, 40.7608], [-104.9903, 39.7392], [-94.5786, 39.0997], [-90.1994, 38.627], [-86.1581, 39.7684], [-82.9988, 39.9612], [-77.4875, 39.0438]]}}, {"type": "Feature", "properties": {"name": "Coast-to-Coast South", "role": "long_haul", "carrier": "Zayo"}, "geometry": {"type": "LineString", "coordinates": [[-118.2437, 34.0522], [-112.074, 33.4484], [-110.9747, 32.2226], [-106.485, 31.7619], [-96.797, 32.7767], [-95.3698, 29.7604], [-90.049, 35.1495], [-84.388, 33.749], [-80.8431, 35.2271], [-77.0369, 38.9072]]}}, {"type": "Feature", "properties": {"name": "Chicago-New York", "role": "long_haul", "carrier": "Zayo"}, "geometry": {"type": "LineString", "coordinates": [[-87.6298, 41.8781], [-81.6944, 41.4993], [-79.9959, 40.4406], [-75.1652, 39.9526], [-74.006, 40.7128]]}}, {"type": "Feature", "properties": {"name": "Dallas-Atlanta", "role": "long_haul", "carrier": "Zayo"}, "geometry": {"type": "LineString", "coordinates": [[-96.797, 32.7767], [-90.049, 35.1495], [-86.7816, 36.1627], [-84.388, 33.749]]}}, {"type": "Feature", "properties": {"name": "Columbus-Ashburn", "role": "long_haul", "carrier": "Zayo"}, "geometry": {"type": "LineString", "coordinates": [[-82.9988, 39.9612], [-79.9959, 40.4406], [-77.4875, 39.0438]]}}, {"type": "Feature", "properties": {"name": "LA-Phoenix-Dallas", "role": "long_haul", "carrier": "Zayo"}, "geometry": {"type": "LineString", "coordinates": [[-118.2437, 34.0522], [-112.074, 33.4484], [-110.9747, 32.2226], [-106.485, 31.7619], [-96.797, 32.7767]]}}, {"type": "Feature", "properties": {"name": "SLC-Denver (I-70)", "role": "long_haul", "carrier": "Zayo"}, "geometry": {"type": "LineString", "coordinates": [[-111.891, 40.7608], [-104.9903, 39.7392]]}}, {"type": "Feature", "properties": {"name": "North-South West", "role": "long_haul", "carrier": "Zayo"}, "geometry": {"type": "LineString", "coordinates": [[-122.3321, 47.6062], [-122.6765, 45.5231], [-121.4944, 38.5816], [-122.4194, 37.7749], [-118.2437, 34.0522], [-117.1611, 32.7157]]}}, {"type": "Feature", "properties": {"name": "North-South Central", "role": "long_haul", "carrier": "Zayo"}, "geometry": {"type": "LineString", "coordinates": [[-93.265, 44.9778], [-93.6091, 41.5868], [-94.5786, 39.0997], [-96.797, 32.7767], [-98.4936, 29.4241]]}}, {"type": "Feature", "properties": {"name": "North-South East", "role": "long_haul", "carrier": "Zayo"}, "geometry": {"type": "LineString", "coordinates": [[-71.0589, 42.3601], [-74.006, 40.7128], [-75.1652, 39.9526], [-77.0369, 38.9072], [-80.8431, 35.2271], [-84.388, 33.749], [-81.3792, 28.5383], [-80.1918, 25.7617]]}}, {"type": "Feature", "properties": {"name": "Denver-Phoenix", "role": "long_haul", "carrier": "Zayo"}, "geometry": {"type": "LineString", "coordinates": [[-104.9903, 39.7392], [-106.6504, 35.0844], [-112.074, 33.4484]]}}, {"type": "Feature", "properties": {"name": "Chicago-Minneapolis", "role": "long_haul", "carrier": "Zayo"}, "geometry": {"type": "LineString", "coordinates": [[-87.6298, 41.8781], [-93.265, 44.9778]]}}]}